ONEWEB-0611             
1 54674U 22166AJ  25364.22785570  .00000001  00000+0 -27875-4 0  9993
2 54674  87.9226 277.6847 0001587  68.8307 291.2996 13.21823874149120
ONEWEB-0612             
1 54675U 22166AK  25364.24103082  .00000033  00000+0  48413-4 0  9993
2 54675  87.9228 277.6616 0001826  77.9976 282.1362 13.21826948149116
ONEWEB-0615             
1 54676U 22166AL  25364.22127213  .00000058  00000+0  10851-3 0  9995
2 54676  87.9228 277.6927 0001711  75.2017 284.9306 13.21828882149120
ONEWEB-0655             
1 54677U 22166AM  25364.27229835  .00000029  00000+0  37843-4 0  9993
2 54677  87.9225 277.6859 0001942  70.5149 289.6195 13.21827626149125
ONEWEB-0659             
1 54678U 22166AN  25364.21305197  .00000105  00000+0  22221-3 0  9992
2 54678  87.9224 277.6982 0001572  74.4391 285.6917 13.21828121149201
ONEWEB-0685             
1 54679U 22166AP  25364.21341064 -.00000036  00000+0 -11888-3 0  9998
2 54679  87.9224 277.6941 0001876  84.7070 275.4278 13.21835904149093
ONEWEB-0712             
1 54680U 22166AQ  25364.27076656  .00000005  00000+0 -21468-4 0  9999
2 54680  87.9049 262.4047 0002007  63.0352 297.0984 13.16592688149838
ONEWEB-0714             
1 54681U 22166AR  25364.21965086  .00000032  00000+0  46984-4 0  9997
2 54681  87.9226 277.6869 0001919  74.8842 285.2504 13.21826138149216
ONEWEB-0532             
1 55140U 23004A   25364.15131597  .00000049  00000+0  92440-4 0  9991
2 55140  87.9104  39.4661 0001868 109.8376 250.2957 13.17648858145328
ONEWEB-0533             
1 55141U 23004B   25364.28713887  .00000459  00000+0  12405-2 0  9990
2 55141  87.8930  24.2101 0001939  92.7612 267.3739 13.12443150145902
ONEWEB-0541             
1 55142U 23004C   25364.18494683 -.00000331  00000+0 -96971-3 0  9992
2 55142  87.8847  54.6993 0001659 103.6261 256.5052 13.11417760143797
ONEWEB-0543             
1 55143U 23004D   25364.26271699  .00000020  00000+0  18792-4 0  9991
2 55143  87.9154   9.0361 0001845  81.0014 279.1327 13.18684148147439
ONEWEB-0544             
1 55144U 23004E   25364.25614818  .00000094  00000+0  20582-3 0  9995
2 55144  87.9160   9.0290 0001557  85.5049 274.6261 13.18685783147438
ONEWEB-0560             
1 55145U 23004F   25364.24953807  .00000018  00000+0  12457-4 0  9998
2 55145  87.9166   9.0180 0001590  83.4119 276.7194 13.18687210147441
ONEWEB-0565             
1 55146U 23004G   25364.31881317  .00000042  00000+0  75007-4 0  9990
2 55146  87.9155   9.0487 0001272  96.5183 263.6094 13.18687274147447
ONEWEB-0567             
1 55147U 23004H   25364.31221272  .00000029  00000+0  41034-4 0  9997
2 55147  87.9160   9.0182 0001324  87.6642 272.4642 13.18687807147444
ONEWEB-0569             
1 55148U 23004J   25364.27475204  .00000374  00000+0  98809-3 0  9993
2 55148  87.8991 353.7781 0001200  56.2200 303.9044 13.13468699148005
