[{"OBJECT_NAME":"ONEWEB-0611","OBJECT_ID":"2022-166AJ","EPOCH":"2025-12-30T05:28:06.732480","MEAN_MOTION":13.21823874,"ECCENTRICITY":0.00015871,"INCLINATION":87.9226,"RA_OF_ASC_NODE":277.6847,"ARG_OF_PERICENTER":68.8307,"MEAN_ANOMALY":291.2996,"EPHEMERIS_TYPE":0,"CLASSIFICATION_TYPE":"U","NORAD_CAT_ID":54674,"ELEMENT_SET_NO":999,"REV_AT_EPOCH":14912,"BSTAR":-2.7874685e-5,"MEAN_MOTION_DOT":1.0e-8,"MEAN_MOTION_DDOT":0},{"OBJECT_NAME":"ONEWEB-0612","OBJECT_ID":"2022-166AK","EPOCH":"2025-12-30T05:47:05.062848","MEAN_MOTION":13.21826948,"ECCENTRICITY":0.00018265,"INCLINATION":87.9228,"RA_OF_ASC_NODE":277.6616,"ARG_OF_PERICENTER":77.9976,"MEAN_ANOMALY":282.1362,"EPHEMERIS_TYPE":0,"CLASSIFICATION_TYPE":"U","NORAD_CAT_ID":54675,"ELEMENT_SET_NO":999,"REV_AT_EPOCH":14911,"BSTAR":4.8412765e-5,"MEAN_MOTION_DOT":3.3e-7,"MEAN_MOTION_DDOT":0},{"OBJECT_NAME":"ONEWEB-0615","OBJECT_ID":"2022-166AL","EPOCH":"2025-12-30T05:18:37.912032","MEAN_MOTION":13.21828882,"ECCENTRICITY":0.0001711,"INCLINATION":87.9228,"RA_OF_ASC_NODE":277.6927,"ARG_OF_PERICENTER":75.2017,"MEAN_ANOMALY":284.9306,"EPHEMERIS_TYPE":0,"CLASSIFICATION_TYPE":"U","NORAD_CAT_ID":54676,"ELEMENT_SET_NO":999,"REV_AT_EPOCH":14912,"BSTAR":0.00010851073,"MEAN_MOTION_DOT":5.8e-7,"MEAN_MOTION_DDOT":0},{"OBJECT_NAME":"ONEWEB-0655","OBJECT_ID":"2022-166AM","EPOCH":"2025-12-30T06:32:06.577440","MEAN_MOTION":13.21827626,"ECCENTRICITY":0.00019424,"INCLINATION":87.9225,"RA_OF_ASC_NODE":277.6859,"ARG_OF_PERICENTER":70.5149,"MEAN_ANOMALY":289.6195,"EPHEMERIS_TYPE":0,"CLASSIFICATION_TYPE":"U","NORAD_CAT_ID":54677,"ELEMENT_SET_NO":999,"REV_AT_EPOCH":14912,"BSTAR":3.7843061e-5,"MEAN_MOTION_DOT":2.9e-7,"MEAN_MOTION_DDOT":0},{"OBJECT_NAME":"ONEWEB-0659","OBJECT_ID":"2022-166AN","EPOCH":"2025-12-30T05:06:47.690208","MEAN_MOTION":13.21828121,"ECCENTRICITY":0.00015727,"INCLINATION":87.9224,"RA_OF_ASC_NODE":277.6982,"ARG_OF_PERICENTER":74.4391,"MEAN_ANOMALY":285.6917,"EPHEMERIS_TYPE":0,"CLASSIFICATION_TYPE":"U","NORAD_CAT_ID":54678,"ELEMENT_SET_NO":999,"REV_AT_EPOCH":14920,"BSTAR":0.00022220598,"MEAN_MOTION_DOT":1.05e-6,"MEAN_MOTION_DDOT":0},{"OBJECT_NAME":"ONEWEB-0685","OBJECT_ID":"2022-166AP","EPOCH":"2025-12-30T05:07:18.679296","MEAN_MOTION":13.21835904,"ECCENTRICITY":0.00018765,"INCLINATION":87.9224,"RA_OF_ASC_NODE":277.6941,"ARG_OF_PERICENTER":84.707,"MEAN_ANOMALY":275.4278,"EPHEMERIS_TYPE":0,"CLASSIFICATION_TYPE":"U","NORAD_CAT_ID":54679,"ELEMENT_SET_NO":999,"REV_AT_EPOCH":14909,"BSTAR":-0.00011888417,"MEAN_MOTION_DOT":-3.6e-7,"MEAN_MOTION_DDOT":0},{"OBJECT_NAME":"ONEWEB-0712","OBJECT_ID":"2022-166AQ","EPOCH":"2025-12-30T06:29:54.230784","MEAN_MOTION":13.16592688,"ECCENTRICITY":0.00020072,"INCLINATION":87.9049,"RA_OF_ASC_NODE":262.4047,"ARG_OF_PERICENTER":63.0352,"MEAN_ANOMALY":297.0984,"EPHEMERIS_TYPE":0,"CLASSIFICATION_TYPE":"U","NORAD_CAT_ID":54680,"ELEMENT_SET_NO":999,"REV_AT_EPOCH":14983,"BSTAR":-2.1467656e-5,"MEAN_MOTION_DOT":5.0e-8,"MEAN_MOTION_DDOT":0},{"OBJECT_NAME":"ONEWEB-0714","OBJECT_ID":"2022-166AR","EPOCH":"2025-12-30T05:16:17.834304","MEAN_MOTION":13.21826138,"ECCENTRICITY":0.00019194,"INCLINATION":87.9226,"RA_OF_ASC_NODE":277.6869,"ARG_OF_PERICENTER":74.8842,"MEAN_ANOMALY":285.2504,"EPHEMERIS_TYPE":0,"CLASSIFICATION_TYPE":"U","NORAD_CAT_ID":54681,"ELEMENT_SET_NO":999,"REV_AT_EPOCH":14921,"BSTAR":4.6984177e-5,"MEAN_MOTION_DOT":3.2e-7,"MEAN_MOTION_DDOT":0},{"OBJECT_NAME":"ONEWEB-0532","OBJECT_ID":"2023-004A","EPOCH":"2025-12-30T03:37:53.699808","MEAN_MOTION":13.17648858,"ECCENTRICITY":0.00018681,"INCLINATION":87.9104,"RA_OF_ASC_NODE":39.4661,"ARG_OF_PERICENTER":109.8376,"MEAN_ANOMALY":250.2957,"EPHEMERIS_TYPE":0,"CLASSIFICATION_TYPE":"U","NORAD_CAT_ID":55140,"ELEMENT_SET_NO":999,"REV_AT_EPOCH":14532,"BSTAR":9.24403e-5,"MEAN_MOTION_DOT":4.9e-7,"MEAN_MOTION_DDOT":0},{"OBJECT_NAME":"ONEWEB-0533","OBJECT_ID":"2023-004B","EPOCH":"2025-12-30T06:53:28.798368","MEAN_MOTION":13.1244315,"ECCENTRICITY":0.00019393,"INCLINATION":87.893,"RA_OF_ASC_NODE":24.2101,"ARG_OF_PERICENTER":92.7612,"MEAN_ANOMALY":267.3739,"EPHEMERIS_TYPE":0,"CLASSIFICATION_TYPE":"U","NORAD_CAT_ID":55141,"ELEMENT_SET_NO":999,"REV_AT_EPOCH":14590,"BSTAR":0.0012405179,"MEAN_MOTION_DOT":4.59e-6,"MEAN_MOTION_DDOT":0},{"OBJECT_NAME":"ONEWEB-0541","OBJECT_ID":"2023-004C","EPOCH":"2025-12-30T04:26:19.406112","MEAN_MOTION":13.1141776,"ECCENTRICITY":0.00016599,"INCLINATION":87.8847,"RA_OF_ASC_NODE":54.6993,"ARG_OF_PERICENTER":103.6261,"MEAN_ANOMALY":256.5052,"EPHEMERIS_TYPE":0,"CLASSIFICATION_TYPE":"U","NORAD_CAT_ID":55142,"ELEMENT_SET_NO":999,"REV_AT_EPOCH":14379,"BSTAR":-0.00096970831,"MEAN_MOTION_DOT":-3.31e-6,"MEAN_MOTION_DDOT":0},{"OBJECT_NAME":"ONEWEB-0543","OBJECT_ID":"2023-004D","EPOCH":"2025-12-30T06:18:18.747936","MEAN_MOTION":13.18684148,"ECCENTRICITY":0.00018457,"INCLINATION":87.9154,"RA_OF_ASC_NODE":9.0361,"ARG_OF_PERICENTER":81.0014,"MEAN_ANOMALY":279.1327,"EPHEMERIS_TYPE":0,"CLASSIFICATION_TYPE":"U","NORAD_CAT_ID":55143,"ELEMENT_SET_NO":999,"REV_AT_EPOCH":14743,"BSTAR":1.8791998e-5,"MEAN_MOTION_DOT":2.0e-7,"MEAN_MOTION_DDOT":0},{"OBJECT_NAME":"ONEWEB-0544","OBJECT_ID":"2023-004E","EPOCH":"2025-12-30T06:08:51.202752","MEAN_MOTION":13.18685783,"ECCENTRICITY":0.00015576,"INCLINATION":87.916,"RA_OF_ASC_NODE":9.029,"ARG_OF_PERICENTER":85.5049,"MEAN_ANOMALY":274.6261,"EPHEMERIS_TYPE":0,"CLASSIFICATION_TYPE":"U","NORAD_CAT_ID":55144,"ELEMENT_SET_NO":999,"REV_AT_EPOCH":14743,"BSTAR":0.00020581776,"MEAN_MOTION_DOT":9.4e-7,"MEAN_MOTION_DDOT":0},{"OBJECT_NAME":"ONEWEB-0560","OBJECT_ID":"2023-004F","EPOCH":"2025-12-30T05:59:20.089248","MEAN_MOTION":13.1868721,"ECCENTRICITY":0.000159,"INCLINATION":87.9166,"RA_OF_ASC_NODE":9.018,"ARG_OF_PERICENTER":83.4119,"MEAN_ANOMALY":276.7194,"EPHEMERIS_TYPE":0,"CLASSIFICATION_TYPE":"U","NORAD_CAT_ID":55145,"ELEMENT_SET_NO":999,"REV_AT_EPOCH":14744,"BSTAR":1.2457009e-5,"MEAN_MOTION_DOT":1.8e-7,"MEAN_MOTION_DDOT":0},{"OBJECT_NAME":"ONEWEB-0565","OBJECT_ID":"2023-004G","EPOCH":"2025-12-30T07:39:05.457888","MEAN_MOTION":13.18687274,"ECCENTRICITY":0.00012725,"INCLINATION":87.9155,"RA_OF_ASC_NODE":9.0487,"ARG_OF_PERICENTER":96.5183,"MEAN_ANOMALY":263.6094,"EPHEMERIS_TYPE":0,"CLASSIFICATION_TYPE":"U","NORAD_CAT_ID":55146,"ELEMENT_SET_NO":999,"REV_AT_EPOCH":14744,"BSTAR":7.5007227e-5,"MEAN_MOTION_DOT":4.2e-7,"MEAN_MOTION_DDOT":0},{"OBJECT_NAME":"ONEWEB-0567","OBJECT_ID":"2023-004H","EPOCH":"2025-12-30T07:29:35.179008","MEAN_MOTION":13.18687807,"ECCENTRICITY":0.00013245,"INCLINATION":87.916,"RA_OF_ASC_NODE":9.0182,"ARG_OF_PERICENTER":87.6642,"MEAN_ANOMALY":272.4642,"EPHEMERIS_TYPE":0,"CLASSIFICATION_TYPE":"U","NORAD_CAT_ID":55147,"ELEMENT_SET_NO":999,"REV_AT_EPOCH":14744,"BSTAR":4.1033622e-5,"MEAN_MOTION_DOT":2.9e-7,"MEAN_MOTION_DDOT":0},{"OBJECT_NAME":"ONEWEB-0569","OBJECT_ID":"2023-004J","EPOCH":"2025-12-30T06:35:38.576256","MEAN_MOTION":13.13468699,"ECCENTRICITY":0.00012,"INCLINATION":87.8991,"RA_OF_ASC_NODE":353.7781,"ARG_OF_PERICENTER":56.22,"MEAN_ANOMALY":303.9044,"EPHEMERIS_TYPE":0,"CLASSIFICATION_TYPE":"U","NORAD_CAT_ID":55148,"ELEMENT_SET_NO":999,"REV_AT_EPOCH":14800,"BSTAR":0.00098808895,"MEAN_MOTION_DOT":3.74e-6,"MEAN_MOTION_DDOT":0}]
